1 90000           19337.16666667  .00000053  00000-0  14140-3 0 00000
2 90000 087.9132 353.6351 0009836 271.3468 155.1524 13.15256611000019
1 90001           19337.16666667  .00000254  00000-0  67839-3 0 00007
2 90001 087.9132 353.6351 0009836 271.3333 164.1660 13.15256412000011
1 90002           19337.16666667  .00000420  00000-0  11208-2 0 00001
2 90002 087.9132 353.6351 0009835 271.3165 173.1830 13.15256258000011
1 90003           19337.16666667  .00000567  00000-0  15133-2 0 00005
2 90003 087.9132 353.6351 0009834 271.2943 182.2053 13.15256123000013
1 90004           19337.16666667  .00000686  00000-0  18316-2 0 00004
2 90004 087.9132 353.6351 0009834 271.2663 191.2333 13.15256014000013
1 90005           19337.16666667  .00000740  00000-0  19774-2 0 00005
2 90005 087.9132 353.6351 0009835 271.2344 200.2652 13.15255976000012
1 90006           19337.16666667  .00000745  00000-0  19883-2 0 00002
2 90006 087.9132 353.6351 0009838 271.2011 209.2985 13.15255987000017
1 90007           19337.16666667  .00000703  00000-0  18761-2 0 00001
2 90007 087.9132 353.6351 0009842 271.1702 218.3293 13.15256039000011
1 90008           19337.16666667  .00000623  00000-0  16635-2 0 00001
2 90008 087.9132 353.6351 0009848 271.1456 227.3539 13.15256124000012
1 90009           19337.16666667  .00000517  00000-0  13800-2 0 00005
2 90009 087.9132 353.6351 0009856 271.1306 236.3688 13.15256230000019
1 90010           19337.16666667  .00000396  00000-0  10573-2 0 00006
2 90010 087.9132 353.6351 0009863 271.1274 245.3720 13.15256345000017
1 90011           19337.16666667  .00000243  00000-0  64992-3 0 00003
2 90011 087.9132 353.6351 0009871 271.1366 254.3627 13.15256482000017
1 90012           19337.16666667  .00000112  00000-0  29838-3 0 00009
2 90012 087.9132 353.6351 0009877 271.1564 263.3428 13.15256594000017
1 90013           19337.16666667 -.00000002  00000-0 -65902-5 0 00004
2 90013 087.9132 353.6351 0009883 271.1843 272.3148 13.15256685000015
1 90014           19337.16666667 -.00000090  00000-0 -24079-3 0 00000
2 90014 087.9132 353.6351 0009886 271.2165 281.2826 13.15256746000017
1 90015           19337.16666667 -.00000128  00000-0 -34265-3 0 00001
2 90015 087.9132 353.6351 0009888 271.2491 290.2500 13.15256759000015
1 90016           19337.16666667 -.00000160  00000-0 -42746-3 0 00001
2 90016 087.9132 353.6351 0009889 271.2791 299.2201 13.15256764000013
1 90017           19337.16666667 -.00000154  00000-0 -41206-3 0 00005
2 90017 087.9132 353.6351 0009888 271.3043 308.1949 13.15256735000011
1 90018           19337.16666667 -.00000116  00000-0 -31097-3 0 00001
2 90018 087.9132 353.6351 0009888 271.3244 317.1749 13.15256681000013
1 90019           19337.16666667 -.00000056  00000-0 -15012-3 0 00004
2 90019 087.9132 353.6351 0009887 271.3402 326.1591 13.15256611000017
1 90020           19337.16666667  .00000014  00000-0  37034-4 0 00007
2 90020 087.9132 353.6351 0009887 271.3542 335.1452 13.15256538000018
1 90021           19337.16666667  .00000080  00000-0  21411-3 0 00002
2 90021 087.9132 353.6351 0009888 271.3691 344.1304 13.15256476000012
1 90022           19337.16666667  .00000114  00000-0  30513-3 0 00004
2 90022 087.9132 353.6351 0009888 271.3872 353.1123 13.15256458000013
1 90023           19337.16666667  .00000138  00000-0  36817-3 0 00004
2 90023 087.9132 353.6351 0009889 271.4102 002.0892 13.15256454000011
1 90024           19337.16666667  .00000145  00000-0  38700-3 0 00006
2 90024 087.9132 353.6351 0009889 271.4384 011.0610 13.15256469000018
1 90025           19337.16666667  .00000100  00000-0  26597-3 0 00009
2 90025 087.9132 353.6351 0009887 271.4703 020.0290 13.15256543000019
1 90026           19337.16666667  .00000020  00000-0  52822-4 0 00002
2 90026 087.9132 353.6351 0009884 271.5031 028.9961 13.15256651000014
1 90027           19337.16666667 -.00000088  00000-0 -23523-3 0 00004
2 90027 087.9132 353.6351 0009880 271.5332 037.9659 13.15256785000017
1 90028           19337.16666667 -.00000214  00000-0 -57152-3 0 00001
2 90028 087.9132 353.6351 0009874 271.5568 046.9421 13.15256933000014
1 90029           19337.16666667 -.00000346  00000-0 -92369-3 0 00007
2 90029 087.9132 353.6351 0009867 271.5706 055.9282 13.15257083000013
1 90030           19337.16666667 -.00000471  00000-0 -12578-2 0 00001
2 90030 087.9132 353.6351 0009859 271.5727 064.9260 13.15257220000018
1 90031           19337.16666667 -.00000607  00000-0 -16210-2 0 00000
2 90031 087.9132 353.6351 0009851 271.5624 073.9362 13.15257357000011
1 90032           19337.16666667 -.00000701  00000-0 -18716-2 0 00009
2 90032 087.9132 353.6351 0009845 271.5414 082.9571 13.15257449000016
1 90033           19337.16666667 -.00000757  00000-0 -20222-2 0 00006
2 90033 087.9132 353.6351 0009840 271.5127 091.9858 13.15257497000014
1 90034           19337.16666667 -.00000769  00000-0 -20524-2 0 00005
2 90034 087.9132 353.6351 0009836 271.4799 101.0186 13.15257497000011
1 90035           19337.16666667 -.00000714  00000-0 -19058-2 0 00006
2 90035 087.9132 353.6351 0009835 271.4471 110.0515 13.15257430000011
1 90036           19337.16666667 -.00000638  00000-0 -17034-2 0 00004
2 90036 087.9132 353.6351 0009834 271.4174 119.0813 13.15257338000018
1 90037           19337.16666667 -.00000513  00000-0 -13696-2 0 00007
2 90037 087.9132 353.6351 0009835 271.3928 128.1059 13.15257198000013
1 90038           19337.16666667 -.00000347  00000-0 -92649-3 0 00009
2 90038 087.9132 353.6351 0009836 271.3739 137.1250 13.15257021000013
1 90039           19337.16666667 -.00000153  00000-0 -40865-3 0 00008
2 90039 087.9132 353.6351 0009836 271.3593 146.1397 13.15256820000010
